{
  "norad_id": 45697,
  "name": "STARLINK-1351",
  "history": [
    {
      "epoch": "2026-03-28T22:42:56.811168Z",
      "apogee_km": 402.5632414157062,
      "perigee_km": 396.93109078904126,
      "latitude_deg": -2.6230679041175317e-05,
      "longitude_deg": 121.54902726393208,
      "height_km": 402.7821711185132,
      "semi_major_axis_km": 6777.8841661023735,
      "eccentricity": 0.00041548,
      "inclination_deg": 53.0499,
      "raan_deg": 288.6454,
      "arg_perigee_deg": 220.7113,
      "mean_anomaly_deg": 139.3587,
      "mean_motion_rev_day": 15.55827875
    },
    {
      "epoch": "2026-03-29T00:15:26.946720Z",
      "apogee_km": 402.53300231695994,
      "perigee_km": 396.9114458764934,
      "latitude_deg": -4.8088620465094875e-05,
      "longitude_deg": 98.04893055158787,
      "height_km": 402.75159607062244,
      "semi_major_axis_km": 6777.859224096726,
      "eccentricity": 0.0004147,
      "inclination_deg": 53.0493,
      "raan_deg": 288.3342,
      "arg_perigee_deg": 220.7599,
      "mean_anomaly_deg": 139.3101,
      "mean_motion_rev_day": 15.55836463
    },
    {
      "epoch": "2026-03-30T00:55:22.575072Z",
      "apogee_km": 401.9800535142276,
      "perigee_km": 396.2356607733118,
      "latitude_deg": -3.54314576570867e-05,
      "longitude_deg": 82.0784816341398,
      "height_km": 402.11289868804823,
      "semi_major_axis_km": 6777.244857143769,
      "eccentricity": 0.0004238,
      "inclination_deg": 53.0494,
      "raan_deg": 283.3585,
      "arg_perigee_deg": 222.8866,
      "mean_anomaly_deg": 137.1814,
      "mean_motion_rev_day": 15.56048026
    },
    {
      "epoch": "2026-03-30T00:55:22.575936Z",
      "apogee_km": 401.97998574177745,
      "perigee_km": 396.23572854576014,
      "latitude_deg": -3.6057460999004355e-05,
      "longitude_deg": 82.07847755603113,
      "height_km": 402.1128490319906,
      "semi_major_axis_km": 6777.244857143769,
      "eccentricity": 0.00042379,
      "inclination_deg": 53.0494,
      "raan_deg": 283.3585,
      "arg_perigee_deg": 222.8866,
      "mean_anomaly_deg": 137.1814,
      "mean_motion_rev_day": 15.56048026
    },
    {
      "epoch": "2026-03-30T14:47:44.954592Z",
      "apogee_km": 401.5304363474079,
      "perigee_km": 395.9693229739587,
      "latitude_deg": 1.4670436419980702e-05,
      "longitude_deg": -129.38436728925652,
      "height_km": 401.4998542918381,
      "semi_major_axis_km": 6776.886879660683,
      "eccentricity": 0.0004103,
      "inclination_deg": 53.0485,
      "raan_deg": 280.5586,
      "arg_perigee_deg": 228.3112,
      "mean_anomaly_deg": 131.7548,
      "mean_motion_rev_day": 15.56171321
    },
    {
      "epoch": "2026-03-30T22:30:08.169120Z",
      "apogee_km": 401.29030788041655,
      "perigee_km": 395.5683108201265,
      "latitude_deg": 1.303417560008461e-05,
      "longitude_deg": 113.14741206457929,
      "height_km": 401.158436077791,
      "semi_major_axis_km": 6776.566309350271,
      "eccentricity": 0.00042219,
      "inclination_deg": 53.0493,
      "raan_deg": 279.0036,
      "arg_perigee_deg": 230.2825,
      "mean_anomaly_deg": 129.7814,
      "mean_motion_rev_day": 15.56281746
    }
  ]
}